ONEWEB-0306             
1 49188U 21083C   23059.45297899 -.00000266  00000+0 -70727-3 0  9997
2 49188  87.9228 214.8249 0002117  88.1569 271.9805 13.18685574 71240
ONEWEB-0306             
1 49188U 21083C   23059.90823825 -.00000273  00000+0 -72505-3 0  9995
2 49188  87.9231 214.7349 0002103  87.9415 272.1957 13.18685690 72584
ONEWEB-0306             
1 49188U 21083C   23060.89463443 -.00000003  00000+0 -39810-4 0  9995
2 49188  87.9230 214.5394 0002071  86.9087 273.2282 13.18683945 71436
ONEWEB-0306             
1 49188U 21083C   23061.12226359  .00000129  00000+0  29359-3 0  9998
2 49188  87.9231 214.4944 0002063  86.6378 273.4990 13.18684428 72748
ONEWEB-0306             
1 49188U 21083C   23061.80515528 -.00000155  00000+0 -42669-3 0  9992
2 49188  87.9234 214.3591 0002044  86.4955 273.6411 13.18682763 71554
ONEWEB-0306             
1 49188U 21083C   23062.33628974  .00000129  00000+0  29553-3 0  9997
2 49188  87.9234 214.2539 0002023  85.4757 274.6606 13.18684186 72909
ONEWEB-0306             
1 49188U 21083C   23062.48804314  .00000046  00000+0  84939-4 0  9995
2 49188  87.9235 214.2239 0002028  85.3648 274.7716 13.18684252 71647
ONEWEB-0306             
1 49188U 21083C   23062.86742659 -.00000020  00000+0 -83901-4 0  9992
2 49188  87.9236 214.1488 0002002  85.3160 274.8200 13.18683928 71697
